{
  "norad_id": 61671,
  "name": "STARLINK-32453",
  "history": [
    {
      "epoch": "2026-03-28T22:17:59.855136Z",
      "apogee_km": 476.1666158355438,
      "perigee_km": 474.26097311363174,
      "latitude_deg": -2.607001902488925e-06,
      "longitude_deg": -159.29846108450607,
      "height_km": 476.0042728113838,
      "semi_major_axis_km": 6853.350794474588,
      "eccentricity": 0.00013903,
      "inclination_deg": 53.1636,
      "raan_deg": 1.5435,
      "arg_perigee_deg": 83.5018,
      "mean_anomaly_deg": 276.6141,
      "mean_motion_rev_day": 15.30200427
    },
    {
      "epoch": "2026-03-28T23:52:03.168768Z",
      "apogee_km": 476.030721267879,
      "perigee_km": 474.41195802805487,
      "latitude_deg": -1.6401549355878182e-05,
      "longitude_deg": 176.8195432978629,
      "height_km": 475.9866603376844,
      "semi_major_axis_km": 6853.358339647967,
      "eccentricity": 0.0001181,
      "inclination_deg": 53.1623,
      "raan_deg": 1.2397,
      "arg_perigee_deg": 80.5314,
      "mean_anomaly_deg": 279.582,
      "mean_motion_rev_day": 15.301979
    },
    {
      "epoch": "2026-03-30T00:56:55.166496Z",
      "apogee_km": 476.13434117965244,
      "perigee_km": 474.40413024138525,
      "latitude_deg": 1.0609217803153886e-05,
      "longitude_deg": 154.7187621654031,
      "height_km": 475.978979550631,
      "semi_major_axis_km": 6853.406235710519,
      "eccentricity": 0.00012623,
      "inclination_deg": 53.163,
      "raan_deg": 356.3856,
      "arg_perigee_deg": 77.4011,
      "mean_anomaly_deg": 282.7131,
      "mean_motion_rev_day": 15.30181859
    },
    {
      "epoch": "2026-03-30T10:21:13.610592Z",
      "apogee_km": 475.9468984390651,
      "perigee_km": 474.5204378681956,
      "latitude_deg": -5.383630567762357e-05,
      "longitude_deg": 11.438309516923779,
      "height_km": 475.9224455734235,
      "semi_major_axis_km": 6853.3706681536305,
      "eccentricity": 0.00010407,
      "inclination_deg": 53.1626,
      "raan_deg": 354.5683,
      "arg_perigee_deg": 72.8798,
      "mean_anomaly_deg": 287.2316,
      "mean_motion_rev_day": 15.30193771
    },
    {
      "epoch": "2026-03-30T21:19:35.613696Z",
      "apogee_km": 475.6709462797744,
      "perigee_km": 474.79385206406914,
      "latitude_deg": -1.5800767360717864e-05,
      "longitude_deg": -155.72787722543268,
      "height_km": 475.9467779103431,
      "semi_major_axis_km": 6853.369399171922,
      "eccentricity": 6.399e-05,
      "inclination_deg": 53.1625,
      "raan_deg": 352.4444,
      "arg_perigee_deg": 65.0658,
      "mean_anomaly_deg": 295.0409,
      "mean_motion_rev_day": 15.30194196
    },
    {
      "epoch": "2026-03-31T09:52:01.391808Z",
      "apogee_km": 475.8441635219624,
      "perigee_km": 474.6260451641365,
      "latitude_deg": 1.0189713631545052e-05,
      "longitude_deg": 13.223514258543517,
      "height_km": 476.06427960295866,
      "semi_major_axis_km": 6853.37210434305,
      "eccentricity": 8.887e-05,
      "inclination_deg": 53.16,
      "raan_deg": 350.0182,
      "arg_perigee_deg": 83.4555,
      "mean_anomaly_deg": 276.6547,
      "mean_motion_rev_day": 15.3019329
    },
    {
      "epoch": "2026-03-31T23:58:30.728064Z",
      "apogee_km": 475.97356245579067,
      "perigee_km": 474.5531267003744,
      "latitude_deg": 1.628070506407622e-05,
      "longitude_deg": 158.29148413235947,
      "height_km": 475.9877920254719,
      "semi_major_axis_km": 6853.400344578083,
      "eccentricity": 0.00010363,
      "inclination_deg": 53.1596,
      "raan_deg": 347.2878,
      "arg_perigee_deg": 75.8236,
      "mean_anomaly_deg": 284.288,
      "mean_motion_rev_day": 15.30183832
    },
    {
      "epoch": "2026-04-02T16:43:52.235904Z",
      "apogee_km": 475.9880026062292,
      "perigee_km": 474.38980700522825,
      "latitude_deg": -2.793260605814357e-05,
      "longitude_deg": -102.61395147837847,
      "height_km": 475.8715414119476,
      "semi_major_axis_km": 6853.325904805729,
      "eccentricity": 0.0001166,
      "inclination_deg": 53.1628,
      "raan_deg": 339.3958,
      "arg_perigee_deg": 74.3212,
      "mean_anomaly_deg": 285.7917,
      "mean_motion_rev_day": 15.30208763
    },
    {
      "epoch": "2026-04-02T21:26:02.980320Z",
      "apogee_km": 476.181595221713,
      "perigee_km": 474.3171999861079,
      "latitude_deg": 1.6716321811076045e-05,
      "longitude_deg": -174.25933119146225,
      "height_km": 475.94431951065775,
      "semi_major_axis_km": 6853.38639760391,
      "eccentricity": 0.00013602,
      "inclination_deg": 53.1607,
      "raan_deg": 338.4883,
      "arg_perigee_deg": 77.413,
      "mean_anomaly_deg": 282.7023,
      "mean_motion_rev_day": 15.30188503
    },
    {
      "epoch": "2026-04-03T20:56:51.240192Z",
      "apogee_km": 476.2020795426088,
      "perigee_km": 474.2982085939857,
      "latitude_deg": -5.178974020201745e-05,
      "longitude_deg": -172.47462627241222,
      "height_km": 476.0963972576912,
      "semi_major_axis_km": 6853.387144068297,
      "eccentricity": 0.0001389,
      "inclination_deg": 53.1607,
      "raan_deg": 333.9398,
      "arg_perigee_deg": 86.8843,
      "mean_anomaly_deg": 273.2316,
      "mean_motion_rev_day": 15.30188253
    },
    {
      "epoch": "2026-04-04T20:27:38.292192Z",
      "apogee_km": 476.02595082563766,
      "perigee_km": 474.4113002402637,
      "latitude_deg": -1.8907741524110544e-05,
      "longitude_deg": -170.6994000674584,
      "height_km": 476.62144803733673,
      "semi_major_axis_km": 6853.35562553295,
      "eccentricity": 0.0001178,
      "inclination_deg": 53.1589,
      "raan_deg": 329.3767,
      "arg_perigee_deg": 128.6661,
      "mean_anomaly_deg": 231.4445,
      "mean_motion_rev_day": 15.30198809
    },
    {
      "epoch": "2026-04-05T09:00:05.261760Z",
      "apogee_km": 476.13824590188415,
      "perigee_km": 474.4177645989648,
      "latitude_deg": -2.2830400666830856e-05,
      "longitude_deg": -1.7412103775883472,
      "height_km": 475.9466906849731,
      "semi_major_axis_km": 6853.415005250424,
      "eccentricity": 0.00012552,
      "inclination_deg": 53.1611,
      "raan_deg": 326.9623,
      "arg_perigee_deg": 74.5207,
      "mean_anomaly_deg": 285.5932,
      "mean_motion_rev_day": 15.30178922
    },
    {
      "epoch": "2026-04-05T21:32:30.568128Z",
      "apogee_km": 475.9850452934834,
      "perigee_km": 474.4992326961483,
      "latitude_deg": 1.2850038029249751e-05,
      "longitude_deg": 167.21165766620808,
      "height_km": 475.6939411131167,
      "semi_major_axis_km": 6853.379138994816,
      "eccentricity": 0.0001084,
      "inclination_deg": 53.1595,
      "raan_deg": 324.5356,
      "arg_perigee_deg": 53.0316,
      "mean_anomaly_deg": 307.0784,
      "mean_motion_rev_day": 15.30190934
    },
    {
      "epoch": "2026-04-06T00:40:36.435936Z",
      "apogee_km": 476.05409745513134,
      "perigee_km": 474.36132131191425,
      "latitude_deg": -4.373232997506536e-05,
      "longitude_deg": 119.449717689476,
      "height_km": 475.81500850842906,
      "semi_major_axis_km": 6853.344709383523,
      "eccentricity": 0.0001235,
      "inclination_deg": 53.1601,
      "raan_deg": 323.9269,
      "arg_perigee_deg": 69.8942,
      "mean_anomaly_deg": 290.2191,
      "mean_motion_rev_day": 15.30202465
    },
    {
      "epoch": "2026-04-07T14:17:52.869984Z",
      "apogee_km": 475.9980882672644,
      "perigee_km": 474.45923354176375,
      "latitude_deg": 5.4226459125020465e-05,
      "longitude_deg": -93.69523776912875,
      "height_km": 476.03046408806534,
      "semi_major_axis_km": 6853.365660904514,
      "eccentricity": 0.00011227,
      "inclination_deg": 53.1597,
      "raan_deg": 316.6454,
      "arg_perigee_deg": 82.7993,
      "mean_anomaly_deg": 277.3136,
      "mean_motion_rev_day": 15.30195448
    },
    {
      "epoch": "2026-04-07T20:34:05.911968Z",
      "apogee_km": 476.2342035585134,
      "perigee_km": 474.23576028858406,
      "latitude_deg": 1.9493295199816883e-05,
      "longitude_deg": 170.77888234874428,
      "height_km": 476.0223087134508,
      "semi_major_axis_km": 6853.371981923548,
      "eccentricity": 0.0001458,
      "inclination_deg": 53.1618,
      "raan_deg": 315.4314,
      "arg_perigee_deg": 83.6399,
      "mean_anomaly_deg": 276.4768,
      "mean_motion_rev_day": 15.30193331
    },
    {
      "epoch": "2026-04-08T07:32:28.084416Z",
      "apogee_km": 476.2032455978133,
      "perigee_km": 474.2489405781889,
      "latitude_deg": 1.473697820984885e-05,
      "longitude_deg": 3.611954277716641,
      "height_km": 476.06515917701313,
      "semi_major_axis_km": 6853.363093088001,
      "eccentricity": 0.00014258,
      "inclination_deg": 53.1621,
      "raan_deg": 313.3075,
      "arg_perigee_deg": 86.5372,
      "mean_anomaly_deg": 273.5792,
      "mean_motion_rev_day": 15.30196308
    },
    {
      "epoch": "2026-04-09T19:35:42.281376Z",
      "apogee_km": 476.32667948085236,
      "perigee_km": 474.2404982536,
      "latitude_deg": -5.560080993184895e-05,
      "longitude_deg": 174.34616053713623,
      "height_km": 475.6214519399456,
      "semi_major_axis_km": 6853.420588867226,
      "eccentricity": 0.0001522,
      "inclination_deg": 53.1637,
      "raan_deg": 306.3316,
      "arg_perigee_deg": 57.4903,
      "mean_anomaly_deg": 302.6244,
      "mean_motion_rev_day": 15.30177052
    },
    {
      "epoch": "2026-04-10T12:50:16.668096Z",
      "apogee_km": 475.9905865981991,
      "perigee_km": 474.4485813668043,
      "latitude_deg": -4.1752934315072544e-05,
      "longitude_deg": -88.34534909130589,
      "height_km": 476.15576677923855,
      "semi_major_axis_km": 6853.356583982501,
      "eccentricity": 0.0001125,
      "inclination_deg": 53.1621,
      "raan_deg": 302.9915,
      "arg_perigee_deg": 92.8011,
      "mean_anomaly_deg": 267.3118,
      "mean_motion_rev_day": 15.30198488
    }
  ]
}